LEMUR-1                 
1 40044U 14033AL  26197.86830318  .00000748  00000+0  91711-4 0  9996
2 40044  97.7911 347.0211 0047590 342.3747  17.5814 14.85339656649871
LEMUR-2-GREENBERG       
1 42837U 17042N   26197.48372277  .00009505  00000+0  30816-3 0  9992
2 42837  97.3829  17.9935 0007251 254.1864 105.8578 15.32177816492878
LEMUR-2-ANDIS           
1 42838U 17042P   26197.44337105  .00012949  00000+0  37176-3 0  9992
2 42838  97.3681  18.2427 0007241 252.8330 107.2121 15.35956970492944
LEMUR-2-MONSON          
1 42839U 17042Q   26197.49124751  .00007839  00000+0  28284-3 0  9991
2 42839  97.4090  17.9272 0005395 239.7069 120.3638 15.28773757492643
LEMUR-2-FURIAUS         
1 42840U 17042R   26197.49750942  .00010084  00000+0  33733-3 0  9991
2 42840  97.3778  15.8960 0005913 324.3797  35.7049 15.31157870492699
LEMUR-2-PETERG          
1 42841U 17042S   26197.44497411  .00011542  00000+0  34148-3 0  9997
2 42841  97.3992  22.5485 0003389 214.3366 145.7659 15.35058112492928
LEMUR-2-DEMBITZ         
1 42842U 17042T   26197.45191892  .00008589  00000+0  28805-3 0  9993
2 42842  97.3828  18.8957 0005066 269.0377  91.0284 15.31130878492824
LEMUR-2-ZACHARY         
1 42845U 17042W   26197.85665323  .00030352  00000+0  49029-3 0  9999
2 42845  97.3570  30.1782 0002639 236.7735 123.3265 15.52821658493809
LEMUR-2-AMANDA-SVANTE   
1 48269U 21034B   26197.68856595  .00019760  00000+0  56482-3 0  9996
2 48269  97.5750 276.7885 0004667 139.8945 220.2643 15.36019311285586
LEMUR-2-SPECIAL-K       
1 48273U 21034F   26197.22303532  .00169731  00000+0  11202-2 0  9993
2 48273  97.5633 286.4062 0006279 212.8733 147.2141 15.75087247286245
LEMUR-2-EMBRIONOVIS     
1 56970U 23084AQ  26197.35090681  .00007614  00000+0  20418-3 0  9996
2 56970  97.6327 342.6901 0008415 202.0240 158.0643 15.38247880172166
LEMUR-2-DEVERILL-M-T    
1 57391U 23100F   26197.65925755  .00015249  00000+0  37063-3 0  9992
2 57391  99.4449 244.9632 0004719 290.8898  69.1836 15.41137579165784
LEMUR-2-BASS            
1 58259U 23174D   26197.18789286  .00009663  00000+0  21365-3 0  9993
2 58259  97.3848 282.3238 0007619  75.2260 284.9831 15.44014456149837
LEMUR-2-JK0903EM1407    
1 58336U 23174CJ  26197.66525624  .00017451  00000+0  27999-3 0  9999
2 58336  97.3924 288.9977 0003475  27.8497 332.2942 15.53118996150309
LEMUR-2-MJR092620       
1 58340U 23174CN  26197.42580198  .00010592  00000+0  21971-3 0  9998
2 58340  97.3976 288.0144 0005202  26.2655 333.8856 15.45889827150161
LEMUR-2-NIMBUS2000      
1 58899U 24022A   26197.56710172  .00013172  00000+0  31938-3 0  9993
2 58899  97.4075  47.9572 0008618  24.2441 335.9209 15.41153193136797
LEMUR-2-VALHALLA        
1 58900U 24022B   26197.83234560  .00009575  00000+0  23769-3 0  9993
2 58900  97.4076  48.1944 0009043  18.4869 341.6704 15.40519232136837
LEMUR-2-CAEL            
1 58903U 24022E   26197.55690600  .00010623  00000+0  25199-3 0  9991
2 58903  97.4056  48.9042 0006977   4.7452 355.3860 15.41885748136861
LEMUR-2-JOHNNYTRUONG    
1 59146U 24043BA  26197.37058727  .00023614  00000+0  26522-3 0  9997
2 59146  97.5396 350.9332 0004017  90.4293 269.7425 15.62625044132590
LEMUR-2-TOMATOKECHUP    
1 60471U 24149D   26197.48204929  .00005784  00000+0  16419-3 0  9998
2 60471  97.3796 279.6140 0003348 120.3105 239.8471 15.36597838106668
LEMUR-2-STELLA          
1 60533U 24149BT  26197.66164544  .00005887  00000+0  34300-3 0  9998
2 60533  97.6734 280.2569 0001221 120.7712 239.3638 15.12387935104950
LEMUR-2-MARHISYAM       
1 60536U 24149BW  26197.18981359  .00005441  00000+0  32263-3 0  9991
2 60536  97.6878 280.2601 0002338  68.0137 292.1341 15.11787785104868
LEMUR-2-AHMED-ASRAR     
1 60576U 24149DN  26197.19531720  .00006078  00000+0  34500-3 0  9992
2 60576  97.7004 282.4729 0001294 203.7256 156.3916 15.13317903104951
LEMUR-2-LLOYD           
1 60577U 24149DP  26197.67300762  .00004783  00000+0  30020-3 0  9990
2 60577  97.6743 278.8274 0004662  68.8848 291.2878 15.09766175104842
LEMUR-2-SQUIRRELCOMM    
1 60578U 24149DQ  26197.66387841  .00002407  00000+0  16300-3 0  9999
2 60578  97.6706 278.4872 0004035 320.8938  39.1997 15.07453973104845
LEMUR-2-SIERRINI        
1 60579U 24149DR  26197.68227596  .00005741  00000+0  34249-3 0  9998
2 60579  97.6840 280.4157 0006432  87.1298 273.0668 15.11530869104916
LEMUR-2-WILSON          
1 62694U 25009CP  26197.67405625  .00000769  00000+0  74985-4 0  9991
2 62694  97.7020 275.6219 0001909 316.5639  43.5431 14.95278920 81767
LEMUR-2-STAR-FOX        
1 62696U 25009CR  26197.65824148  .00003671  00000+0  27841-3 0  9999
2 62696  97.6905 279.0553 0002048  36.9264 323.2101 15.02851773 81989
LEMUR-2-ARIANNA         
1 62699U 25009CU  26197.65670647  .00003802  00000+0  28821-3 0  9990
2 62699  97.6846 278.8049 0002398  44.9756 315.1663 15.02853991 81983
LEMUR-2-ALISIA          
1 62706U 25009DB  26197.16278189  .00003920  00000+0  29439-3 0  9997
2 62706  97.6971 279.1419 0004420 126.4435 233.7199 15.03183137104517
